{
  "type": "FeatureCollection",
  "features": [
    {
      "type": "Feature",
      "properties": {
        "norad_id": 29268,
        "name": "ARIRANG-2 (KOMPSAT-2)",
        "group": "resource",
        "lat": -42.146872389532774,
        "lon": 173.80403423894123,
        "alt_km": 676.1717090411148,
        "timestamp": "2025-12-03T17:47:50.368602+00:00",
        "meta_object_name": "ARIRANG-2 (KOMPSAT-2)",
        "meta_object_id": "2006-031A",
        "meta_epoch": "2025-12-03T13:23:03.962400",
        "meta_mean_motion": 14.64480342,
        "meta_eccentricity": 0.0013993,
        "meta_inclination": 97.8264,
        "meta_ra_of_asc_node": 166.4782,
        "meta_arg_of_pericenter": 339.509,
        "meta_mean_anomaly": 89.2019,
        "meta_ephemeris_type": 0,
        "meta_classification_type": "U",
        "meta_norad_cat_id": 29268,
        "meta_element_set_no": 999,
        "meta_rev_at_epoch": 3284,
        "meta_bstar": 0.00012693,
        "meta_mean_motion_dot": 6.28e-06,
        "meta_mean_motion_ddot": 0,
        "tle_line1": "1 29268U 06031A   25337.55768475  .00000628  00000+0  12693-3 0  9993",
        "tle_line2": "2 29268  97.8264 166.4782 0013993 339.5090  89.2019 14.64480342 32845"
      },
      "geometry": {
        "type": "Point",
        "coordinates": [
          173.80403423894123,
          -42.146872389532774
        ]
      }
    },
    {
      "type": "Feature",
      "properties": {
        "norad_id": 29709,
        "name": "LAPAN-TUBSAT",
        "group": "resource",
        "lat": -71.27096558514411,
        "lon": -7.3649813892881815,
        "alt_km": 628.2888902666127,
        "timestamp": "2025-12-03T17:47:50.368616+00:00",
        "meta_object_name": "LAPAN-TUBSAT",
        "meta_object_id": "2007-001A",
        "meta_epoch": "2025-12-03T11:39:38.299680",
        "meta_mean_motion": 14.85647787,
        "meta_eccentricity": 0.0013596,
        "meta_inclination": 98.1252,
        "meta_ra_of_asc_node": 327.4525,
        "meta_arg_of_pericenter": 101.5016,
        "meta_mean_anomaly": 258.7726,
        "meta_ephemeris_type": 0,
        "meta_classification_type": "U",
        "meta_norad_cat_id": 29709,
        "meta_element_set_no": 999,
        "meta_rev_at_epoch": 2209,
        "meta_bstar": 0.0001286,
        "meta_mean_motion_dot": 1.058e-05,
        "meta_mean_motion_ddot": 0,
        "tle_line1": "1 29709U 07001A   25337.48585995  .00001058  00000+0  12860-3 0  9991",
        "tle_line2": "2 29709  98.1252 327.4525 0013596 101.5016 258.7726 14.85647787 22099"
      },
      "geometry": {
        "type": "Point",
        "coordinates": [
          -7.3649813892881815,
          -71.27096558514411
        ]
      }
    },
    {
      "type": "Feature",
      "properties": {
        "norad_id": 31113,
        "name": "HAIYANG-1B",
        "group": "resource",
        "lat": 37.83624955975474,
        "lon": 148.92659259728254,
        "alt_km": 783.6701148076672,
        "timestamp": "2025-12-03T17:47:50.368628+00:00",
        "meta_object_name": "HAIYANG-1B",
        "meta_object_id": "2007-010A",
        "meta_epoch": "2025-12-03T12:06:17.193024",
        "meta_mean_motion": 14.30959975,
        "meta_eccentricity": 0.0014589,
        "meta_inclination": 98.3307,
        "meta_ra_of_asc_node": 322.1645,
        "meta_arg_of_pericenter": 63.5351,
        "meta_mean_anomaly": 296.7327,
        "meta_ephemeris_type": 0,
        "meta_classification_type": "U",
        "meta_norad_cat_id": 31113,
        "meta_element_set_no": 999,
        "meta_rev_at_epoch": 97264,
        "meta_bstar": 9.1823e-05,
        "meta_mean_motion_dot": 2e-06,
        "meta_mean_motion_ddot": 0,
        "tle_line1": "1 31113U 07010A   25337.50436566  .00000200  00000+0  91823-4 0  9990",
        "tle_line2": "2 31113  98.3307 322.1645 0014589  63.5351 296.7327 14.30959975972640"
      },
      "geometry": {
        "type": "Point",
        "coordinates": [
          148.92659259728254,
          37.83624955975474
        ]
      }
    },
    {
      "type": "Feature",
      "properties": {
        "norad_id": 31598,
        "name": "COSMO-SKYMED 1",
        "group": "resource",
        "lat": -78.76558287728736,
        "lon": -152.67938592403377,
        "alt_km": 588.6196872469227,
        "timestamp": "2025-12-03T17:47:50.368640+00:00",
        "meta_object_name": "COSMO-SKYMED 1",
        "meta_object_id": "2007-023A",
        "meta_epoch": "2025-12-03T11:44:27.272256",
        "meta_mean_motion": 14.95656321,
        "meta_eccentricity": 0.0001429,
        "meta_inclination": 97.8841,
        "meta_ra_of_asc_node": 162.8283,
        "meta_arg_of_pericenter": 80.989,
        "meta_mean_anomaly": 279.1492,
        "meta_ephemeris_type": 0,
        "meta_classification_type": "U",
        "meta_norad_cat_id": 31598,
        "meta_element_set_no": 999,
        "meta_rev_at_epoch": 52,
        "meta_bstar": 0.0004747,
        "meta_mean_motion_dot": 5.22e-05,
        "meta_mean_motion_ddot": 0,
        "tle_line1": "1 31598U 07023A   25337.48920454  .00005220  00000+0  47470-3 0  9997",
        "tle_line2": "2 31598  97.8841 162.8283 0001429  80.9890 279.1492 14.95656321   528"
      },
      "geometry": {
        "type": "Point",
        "coordinates": [
          -152.67938592403377,
          -78.76558287728736
        ]
      }
    },
    {
      "type": "Feature",
      "properties": {
        "norad_id": 31698,
        "name": "TERRASAR-X",
        "group": "resource",
        "lat": -74.31811458628168,
        "lon": 135.49563459932747,
        "alt_km": 517.0287998846516,
        "timestamp": "2025-12-03T17:47:50.368652+00:00",
        "meta_object_name": "TERRASAR-X",
        "meta_object_id": "2007-026A",
        "meta_epoch": "2025-12-02T13:47:56.806656",
        "meta_mean_motion": 15.19154546,
        "meta_eccentricity": 0.0001916,
        "meta_inclination": 97.4445,
        "meta_ra_of_asc_node": 342.105,
        "meta_arg_of_pericenter": 86.6664,
        "meta_mean_anomaly": 273.4789,
        "meta_ephemeris_type": 0,
        "meta_classification_type": "U",
        "meta_norad_cat_id": 31698,
        "meta_element_set_no": 999,
        "meta_rev_at_epoch": 2337,
        "meta_bstar": 8.5350444e-05,
        "meta_mean_motion_dot": 1.726e-05,
        "meta_mean_motion_ddot": 0,
        "tle_line1": "1 31698U 07026A   25336.57496304  .00001726  00000+0  85350-4 0  9999",
        "tle_line2": "2 31698  97.4445 342.1050 0001916  86.6664 273.4789 15.19154546 23376"
      },
      "geometry": {
        "type": "Point",
        "coordinates": [
          135.49563459932747,
          -74.31811458628168
        ]
      }
    },
    {
      "type": "Feature",
      "properties": {
        "norad_id": 32060,
        "name": "WORLDVIEW-1 (WV-1)",
        "group": "resource",
        "lat": 79.15455607863426,
        "lon": 52.748817902022914,
        "alt_km": 484.59082117022444,
        "timestamp": "2025-12-03T17:47:50.368663+00:00",
        "meta_object_name": "WORLDVIEW-1 (WV-1)",
        "meta_object_id": "2007-041A",
        "meta_epoch": "2025-12-03T07:59:12.124608",
        "meta_mean_motion": 15.24439924,
        "meta_eccentricity": 7.52e-05,
        "meta_inclination": 97.3839,
        "meta_ra_of_asc_node": 94.948,
        "meta_arg_of_pericenter": 93.3039,
        "meta_mean_anomaly": 266.8285,
        "meta_ephemeris_type": 0,
        "meta_classification_type": "U",
        "meta_norad_cat_id": 32060,
        "meta_element_set_no": 999,
        "meta_rev_at_epoch": 1304,
        "meta_bstar": 0.00048185,
        "meta_mean_motion_dot": 0.00011762,
        "meta_mean_motion_ddot": 0,
        "tle_line1": "1 32060U 07041A   25337.33277922  .00011762  00000+0  48185-3 0  9993",
        "tle_line2": "2 32060  97.3839  94.9480 0000752  93.3039 266.8285 15.24439924 13045"
      },
      "geometry": {
        "type": "Point",
        "coordinates": [
          52.748817902022914,
          79.15455607863426
        ]
      }
    },
    {
      "type": "Feature",
      "properties": {
        "norad_id": 32289,
        "name": "YAOGAN-3",
        "group": "resource",
        "lat": -41.6871482111118,
        "lon": 11.494554347534045,
        "alt_km": 605.7358370863913,
        "timestamp": "2025-12-03T17:47:50.368674+00:00",
        "meta_object_name": "YAOGAN-3",
        "meta_object_id": "2007-055A",
        "meta_epoch": "2025-12-03T13:09:01.381824",
        "meta_mean_motion": 14.89784154,
        "meta_eccentricity": 0.0001506,
        "meta_inclination": 97.8376,
        "meta_ra_of_asc_node": 4.2564,
        "meta_arg_of_pericenter": 77.6527,
        "meta_mean_anomaly": 282.4859,
        "meta_ephemeris_type": 0,
        "meta_classification_type": "U",
        "meta_norad_cat_id": 32289,
        "meta_element_set_no": 999,
        "meta_rev_at_epoch": 97672,
        "meta_bstar": 0.00039254,
        "meta_mean_motion_dot": 3.71e-05,
        "meta_mean_motion_ddot": 0,
        "tle_line1": "1 32289U 07055A   25337.54793266  .00003710  00000+0  39254-3 0  9999",
        "tle_line2": "2 32289  97.8376   4.2564 0001506  77.6527 282.4859 14.89784154976723"
      },
      "geometry": {
        "type": "Point",
        "coordinates": [
          11.494554347534045,
          -41.6871482111118
        ]
      }
    }
  ]
}